[
    {
        "Altitude(m)": 571782.7728588958,
        "Argument of Periapsis(deg)": 0.006622991110713501,
        "Eccentricity": 0.0,
        "Inclination(deg)": 53.0,
        "Latitude(deg)": -52.990621279248884,
        "Longitude(deg)": -99.5971825516405,
        "Mean Anomaly(deg)": 273.7279928675776,
        "RAAN(deg)": 84.99014336852802,
        "Satellite Name": "Starlink Shell 1 390",
        "Satellite Number": 390,
        "Semi-Major Axis(m)": 6931778.249405717,
        "Time(s)": 190
    },
    {
        "Altitude(m)": 571760.2905378924,
        "Argument of Periapsis(deg)": 0.0069715695902247375,
        "Eccentricity": 0.0,
        "Inclination(deg)": 53.0,
        "Latitude(deg)": -52.93247910871903,
        "Longitude(deg)": -98.60874568926424,
        "Mean Anomaly(deg)": 274.3548240711343,
        "RAAN(deg)": 84.98962459845055,
        "Satellite Name": "Starlink Shell 1 390",
        "Satellite Number": 390,
        "Semi-Major Axis(m)": 6931778.249405717,
        "Time(s)": 200
    },
    {
        "Altitude(m)": 571734.3606890265,
        "Argument of Periapsis(deg)": 0.007320148069735974,
        "Eccentricity": 0.0,
        "Inclination(deg)": 53.0,
        "Latitude(deg)": -52.865442846743385,
        "Longitude(deg)": -97.62326998504591,
        "Mean Anomaly(deg)": 274.981655274691,
        "RAAN(deg)": 84.98910582837308,
        "Satellite Name": "Starlink Shell 1 390",
        "Satellite Number": 390,
        "Semi-Major Axis(m)": 6931778.249405717,
        "Time(s)": 210
    },
    {
        "Altitude(m)": 571704.9936391797,
        "Argument of Periapsis(deg)": 0.007668726549247212,
        "Eccentricity": 0.0,
        "Inclination(deg)": 53.0,
        "Latitude(deg)": -52.789560922448864,
        "Longitude(deg)": -96.64115664990452,
        "Mean Anomaly(deg)": -84.39151352175229,
        "RAAN(deg)": 84.98858705829561,
        "Satellite Name": "Starlink Shell 1 390",
        "Satellite Number": 390,
        "Semi-Major Axis(m)": 6931778.249405717,
        "Time(s)": 220
    },
    {
        "Altitude(m)": 571672.2010859502,
        "Argument of Periapsis(deg)": 0.00801730502875845,
        "Eccentricity": 0.0,
        "Inclination(deg)": 53.0,
        "Latitude(deg)": -52.70488773815543,
        "Longitude(deg)": -95.66279728376671,
        "Mean Anomaly(deg)": -83.76468231819551,
        "RAAN(deg)": 84.98806828821813,
        "Satellite Name": "Starlink Shell 1 390",
        "Satellite Number": 390,
        "Semi-Major Axis(m)": 6931778.249405717,
        "Time(s)": 230
    },
    {
        "Altitude(m)": 571635.9960926193,
        "Argument of Periapsis(deg)": 0.008365883508269684,
        "Eccentricity": 0.0,
        "Inclination(deg)": 53.0,
        "Latitude(deg)": -52.61148348124752,
        "Longitude(deg)": -94.68857238303153,
        "Mean Anomaly(deg)": -83.1378511146388,
        "RAAN(deg)": 84.98754951814067,
        "Satellite Name": "Starlink Shell 1 390",
        "Satellite Number": 390,
        "Semi-Major Axis(m)": 6931778.249405717,
        "Time(s)": 240
    },
    {
        "Altitude(m)": 571596.3930824732,
        "Argument of Periapsis(deg)": 0.008714461987780921,
        "Eccentricity": 0.0,
        "Inclination(deg)": 53.0,
        "Latitude(deg)": -52.50941391908216,
        "Longitude(deg)": -93.71885143243614,
        "Mean Anomaly(deg)": -82.5110199110821,
        "RAAN(deg)": 84.98703074806319,
        "Satellite Name": "Starlink Shell 1 390",
        "Satellite Number": 390,
        "Semi-Major Axis(m)": 6931778.249405717,
        "Time(s)": 250
    },
    {
        "Altitude(m)": 571553.4078325932,
        "Argument of Periapsis(deg)": 0.009063040467292158,
        "Eccentricity": 0.0,
        "Inclination(deg)": 53.0,
        "Latitude(deg)": -52.39875017852379,
        "Longitude(deg)": -92.75399156015706,
        "Mean Anomaly(deg)": -81.88418870752544,
        "RAAN(deg)": 84.9865119779857,
        "Satellite Name": "Starlink Shell 1 390",
        "Satellite Number": 390,
        "Semi-Major Axis(m)": 6931778.249405717,
        "Time(s)": 260
    },
    {
        "Altitude(m)": 571507.057467003,
        "Argument of Periapsis(deg)": 0.009411618946803396,
        "Eccentricity": 0.0,
        "Inclination(deg)": 53.0,
        "Latitude(deg)": -52.2795685117575,
        "Longitude(deg)": -91.79433627259846,
        "Mean Anomaly(deg)": -81.25735750396869,
        "RAAN(deg)": 84.98599320790825,
        "Satellite Name": "Starlink Shell 1 390",
        "Satellite Number": 390,
        "Semi-Major Axis(m)": 6931778.249405717,
        "Time(s)": 270
    },
    {
        "Altitude(m)": 571457.3604493011,
        "Argument of Periapsis(deg)": 0.009760197426314633,
        "Eccentricity": 0.0,
        "Inclination(deg)": 53.0,
        "Latitude(deg)": -52.151950050178684,
        "Longitude(deg)": -90.84021578511928,
        "Mean Anomaly(deg)": -80.63052630041197,
        "RAAN(deg)": 84.98547443783076,
        "Satellite Name": "Starlink Shell 1 390",
        "Satellite Number": 390,
        "Semi-Major Axis(m)": 6931778.249405717,
        "Time(s)": 280
    },
    {
        "Altitude(m)": 571404.3365746184,
        "Argument of Periapsis(deg)": 0.01010877590582587,
        "Eccentricity": 0.0,
        "Inclination(deg)": 53.0,
        "Latitude(deg)": -52.01598054794309,
        "Longitude(deg)": -89.89194592333273,
        "Mean Anomaly(deg)": -80.00369509685525,
        "RAAN(deg)": 84.98495566775328,
        "Satellite Name": "Starlink Shell 1 390",
        "Satellite Number": 390,
        "Semi-Major Axis(m)": 6931778.249405717,
        "Time(s)": 290
    },
    {
        "Altitude(m)": 571348.0069610821,
        "Argument of Periapsis(deg)": 0.010457354385337106,
        "Eccentricity": 0.0,
        "Inclination(deg)": 53.0,
        "Latitude(deg)": -51.87175011717261,
        "Longitude(deg)": -88.94982711069493,
        "Mean Anomaly(deg)": -79.3768638932985,
        "RAAN(deg)": 84.98443689767582,
        "Satellite Name": "Starlink Shell 1 390",
        "Satellite Number": 390,
        "Semi-Major Axis(m)": 6931778.249405717,
        "Time(s)": 300
    },
    {
        "Altitude(m)": 571288.3940406593,
        "Argument of Periapsis(deg)": 0.010805932864848343,
        "Eccentricity": 0.0,
        "Inclination(deg)": 53.0,
        "Latitude(deg)": -51.719352956425396,
        "Longitude(deg)": -88.01414495399227,
        "Mean Anomaly(deg)": -78.75003268974184,
        "RAAN(deg)": 84.98391812759834,
        "Satellite Name": "Starlink Shell 1 390",
        "Satellite Number": 390,
        "Semi-Major Axis(m)": 6931778.249405717,
        "Time(s)": 310
    },
    {
        "Altitude(m)": 571225.5215494473,
        "Argument of Periapsis(deg)": 0.01115451134435958,
        "Eccentricity": 0.0,
        "Inclination(deg)": 53.0,
        "Latitude(deg)": -51.55888707423384,
        "Longitude(deg)": -87.08516940077183,
        "Mean Anomaly(deg)": -78.12320148618508,
        "RAAN(deg)": 84.98339935752087,
        "Satellite Name": "Starlink Shell 1 390",
        "Satellite Number": 390,
        "Semi-Major Axis(m)": 6931778.249405717,
        "Time(s)": 320
    },
    {
        "Altitude(m)": 571159.4145173733,
        "Argument of Periapsis(deg)": 0.011503089823870818,
        "Eccentricity": 0.0,
        "Inclination(deg)": 53.0,
        "Latitude(deg)": -51.39045400940155,
        "Longitude(deg)": -86.1631539800214,
        "Mean Anomaly(deg)": -77.49637028262838,
        "RAAN(deg)": 84.9828805874434,
        "Satellite Name": "Starlink Shell 1 390",
        "Satellite Number": 390,
        "Semi-Major Axis(m)": 6931778.249405717,
        "Time(s)": 330
    },
    {
        "Altitude(m)": 571090.0992573637,
        "Argument of Periapsis(deg)": 0.011851668303382053,
        "Eccentricity": 0.0,
        "Inclination(deg)": 53.0,
        "Latitude(deg)": -51.21415854970064,
        "Longitude(deg)": -85.2483366367805,
        "Mean Anomaly(deg)": -76.86953907907167,
        "RAAN(deg)": 84.98236181736593,
        "Satellite Name": "Starlink Shell 1 390",
        "Satellite Number": 390,
        "Semi-Major Axis(m)": 6931778.249405717,
        "Time(s)": 340
    },
    {
        "Altitude(m)": 571017.6033539106,
        "Argument of Periapsis(deg)": 0.012200246782893292,
        "Eccentricity": 0.0,
        "Inclination(deg)": 53.0,
        "Latitude(deg)": -51.03010845053994,
        "Longitude(deg)": -84.34093913211026,
        "Mean Anomaly(deg)": -76.24270787551501,
        "RAAN(deg)": 84.98184304728845,
        "Satellite Name": "Starlink Shell 1 390",
        "Satellite Number": 390,
        "Semi-Major Axis(m)": 6931778.249405717,
        "Time(s)": 350
    },
    {
        "Altitude(m)": 570941.9556511275,
        "Argument of Periapsis(deg)": 0.012548825262404526,
        "Eccentricity": 0.0,
        "Inclination(deg)": 53.0,
        "Latitude(deg)": -50.83841415508868,
        "Longitude(deg)": -83.44116651792015,
        "Mean Anomaly(deg)": -75.61587667195825,
        "RAAN(deg)": 84.98132427721099,
        "Satellite Name": "Starlink Shell 1 390",
        "Satellite Number": 390,
        "Semi-Major Axis(m)": 6931778.249405717,
        "Time(s)": 360
    },
    {
        "Altitude(m)": 570863.1862402202,
        "Argument of Periapsis(deg)": 0.012897403741915765,
        "Eccentricity": 0.0,
        "Inclination(deg)": 53.0,
        "Latitude(deg)": -50.63918851724707,
        "Longitude(deg)": -82.54920819567677,
        "Mean Anomaly(deg)": -74.98904546840154,
        "RAAN(deg)": 84.98080550713351,
        "Satellite Name": "Starlink Shell 1 390",
        "Satellite Number": 390,
        "Semi-Major Axis(m)": 6931778.249405717,
        "Time(s)": 370
    }
]